[{"OBJECT_NAME":"STARLINK-5524","OBJECT_ID":"2023-064AC","EPOCH":"2026-03-09T13:07:58.611360","MEAN_MOTION":14.98314489,"ECCENTRICITY":0.00036782,"INCLINATION":69.9998,"RA_OF_ASC_NODE":124.9922,"ARG_OF_PERICENTER":267.194,"MEAN_ANOMALY":92.8798,"EPHEMERIS_TYPE":0,"CLASSIFICATION_TYPE":"U","NORAD_CAT_ID":56474,"ELEMENT_SET_NO":999,"REV_AT_EPOCH":15571,"BSTAR":-7.9720758e-5,"MEAN_MOTION_DOT":-1.044e-5,"MEAN_MOTION_DDOT":0},{"OBJECT_NAME":"COSMOS 2251 DEB","OBJECT_ID":"1993-036BQA","EPOCH":"2026-02-08T04:34:20.118432","MEAN_MOTION":14.79329439,"ECCENTRICITY":0.00859513,"INCLINATION":73.9998,"RA_OF_ASC_NODE":211.0646,"ARG_OF_PERICENTER":187.26,"MEAN_ANOMALY":172.734,"EPHEMERIS_TYPE":0,"CLASSIFICATION_TYPE":"U","NORAD_CAT_ID":37975,"ELEMENT_SET_NO":999,"REV_AT_EPOCH":70594,"BSTAR":0.0042950145,"MEAN_MOTION_DOT":0.00034176,"MEAN_MOTION_DDOT":0}]
